{
  "type": "FeatureCollection",
  "features": [
    {
      "type": "Feature",
      "properties": {
        "norad_id": 66394,
        "name": "STARLINK-35672",
        "group": "last-30-days",
        "lat": -2.60687072204137,
        "lon": 99.86841560715527,
        "alt_km": 448.03279457214103,
        "timestamp": "2025-12-09T20:37:08.054323+00:00",
        "meta_object_name": "STARLINK-35672",
        "meta_object_id": "2025-257Q",
        "meta_epoch": "2025-12-09T02:41:25.904832",
        "meta_mean_motion": 15.39631651,
        "meta_eccentricity": 0.00012385,
        "meta_inclination": 53.1593,
        "meta_ra_of_asc_node": 281.4337,
        "meta_arg_of_pericenter": 83.799,
        "meta_mean_anomaly": 276.3156,
        "meta_ephemeris_type": 0,
        "meta_classification_type": "U",
        "meta_norad_cat_id": 66394,
        "meta_element_set_no": 999,
        "meta_rev_at_epoch": 581,
        "meta_bstar": 0.0028492606,
        "meta_mean_motion_dot": 0.00115352,
        "meta_mean_motion_ddot": 0,
        "tle_line1": "1 66394U 25257Q   25343.11210538  .00115352  00000+0  28493-2 0  9991",
        "tle_line2": "2 66394  53.1593 281.4337 0001238  83.7990 276.3156 15.39631651  5818"
      },
      "geometry": {
        "type": "Point",
        "coordinates": [
          99.86841560715527,
          -2.60687072204137
        ]
      }
    },
    {
      "type": "Feature",
      "properties": {
        "norad_id": 66395,
        "name": "STARLINK-35681",
        "group": "last-30-days",
        "lat": -21.248600827527046,
        "lon": 114.81610934832747,
        "alt_km": 450.63544771606576,
        "timestamp": "2025-12-09T20:37:08.054336+00:00",
        "meta_object_name": "STARLINK-35681",
        "meta_object_id": "2025-257R",
        "meta_epoch": "2025-12-09T16:00:01.999584",
        "meta_mean_motion": 15.39519622,
        "meta_eccentricity": 9.564e-05,
        "meta_inclination": 53.1596,
        "meta_ra_of_asc_node": 278.7733,
        "meta_arg_of_pericenter": 113.816,
        "meta_mean_anomaly": 105.8933,
        "meta_ephemeris_type": 0,
        "meta_classification_type": "U",
        "meta_norad_cat_id": 66395,
        "meta_element_set_no": 999,
        "meta_rev_at_epoch": 584,
        "meta_bstar": 0.0024624268,
        "meta_mean_motion_dot": 0.00099056,
        "meta_mean_motion_ddot": 0,
        "tle_line1": "1 66395U 25257R   25343.66668981  .00099056  00000+0  24624-2 0  9995",
        "tle_line2": "2 66395  53.1596 278.7733 0000956 113.8160 105.8933 15.39519622  5846"
      },
      "geometry": {
        "type": "Point",
        "coordinates": [
          114.81610934832747,
          -21.248600827527046
        ]
      }
    },
    {
      "type": "Feature",
      "properties": {
        "norad_id": 66396,
        "name": "STARLINK-35669",
        "group": "last-30-days",
        "lat": -22.640863050022226,
        "lon": 116.08432388516529,
        "alt_km": 450.8473658253961,
        "timestamp": "2025-12-09T20:37:08.054347+00:00",
        "meta_object_name": "STARLINK-35669",
        "meta_object_id": "2025-257S",
        "meta_epoch": "2025-12-09T16:00:01.999584",
        "meta_mean_motion": 15.39532933,
        "meta_eccentricity": 9.152e-05,
        "meta_inclination": 53.1595,
        "meta_ra_of_asc_node": 278.7686,
        "meta_arg_of_pericenter": 103.6111,
        "meta_mean_anomaly": 117.9176,
        "meta_ephemeris_type": 0,
        "meta_classification_type": "U",
        "meta_norad_cat_id": 66396,
        "meta_element_set_no": 999,
        "meta_rev_at_epoch": 600,
        "meta_bstar": 0.002266553,
        "meta_mean_motion_dot": 0.00091089,
        "meta_mean_motion_ddot": 0,
        "tle_line1": "1 66396U 25257S   25343.66668981  .00091089  00000+0  22666-2 0  9998",
        "tle_line2": "2 66396  53.1595 278.7686 0000915 103.6111 117.9176 15.39532933  6003"
      },
      "geometry": {
        "type": "Point",
        "coordinates": [
          116.08432388516529,
          -22.640863050022226
        ]
      }
    },
    {
      "type": "Feature",
      "properties": {
        "norad_id": 66397,
        "name": "STARLINK-35510",
        "group": "last-30-days",
        "lat": -39.49082421509104,
        "lon": 135.9718011537747,
        "alt_km": 452.3085878719203,
        "timestamp": "2025-12-09T20:37:08.054358+00:00",
        "meta_object_name": "STARLINK-35510",
        "meta_object_id": "2025-257T",
        "meta_epoch": "2025-12-09T16:00:01.999584",
        "meta_mean_motion": 15.39541514,
        "meta_eccentricity": 0.00012468,
        "meta_inclination": 53.1598,
        "meta_ra_of_asc_node": 278.7215,
        "meta_arg_of_pericenter": 98.5508,
        "meta_mean_anomaly": 146.8798,
        "meta_ephemeris_type": 0,
        "meta_classification_type": "U",
        "meta_norad_cat_id": 66397,
        "meta_element_set_no": 999,
        "meta_rev_at_epoch": 600,
        "meta_bstar": 0.0021118356,
        "meta_mean_motion_dot": 0.00084797,
        "meta_mean_motion_ddot": 0,
        "tle_line1": "1 66397U 25257T   25343.66668981  .00084797  00000+0  21118-2 0  9998",
        "tle_line2": "2 66397  53.1598 278.7215 0001246  98.5508 146.8798 15.39541514  6001"
      },
      "geometry": {
        "type": "Point",
        "coordinates": [
          135.9718011537747,
          -39.49082421509104
        ]
      }
    },
    {
      "type": "Feature",
      "properties": {
        "norad_id": 66398,
        "name": "STARLINK-35642",
        "group": "last-30-days",
        "lat": -51.59657533962053,
        "lon": 168.8122266309653,
        "alt_km": 453.08251725183436,
        "timestamp": "2025-12-09T20:37:08.054369+00:00",
        "meta_object_name": "STARLINK-35642",
        "meta_object_id": "2025-257U",
        "meta_epoch": "2025-12-09T16:00:01.999584",
        "meta_mean_motion": 15.3951688,
        "meta_eccentricity": 0.00013184,
        "meta_inclination": 53.1598,
        "meta_ra_of_asc_node": 278.67,
        "meta_arg_of_pericenter": 87.7508,
        "meta_mean_anomaly": 183.4659,
        "meta_ephemeris_type": 0,
        "meta_classification_type": "U",
        "meta_norad_cat_id": 66398,
        "meta_element_set_no": 999,
        "meta_rev_at_epoch": 600,
        "meta_bstar": 0.0027620658,
        "meta_mean_motion_dot": 0.00111329,
        "meta_mean_motion_ddot": 0,
        "tle_line1": "1 66398U 25257U   25343.66668981  .00111329  00000+0  27621-2 0  9996",
        "tle_line2": "2 66398  53.1598 278.6700 0001318  87.7508 183.4659 15.39516880  6001"
      },
      "geometry": {
        "type": "Point",
        "coordinates": [
          168.8122266309653,
          -51.59657533962053
        ]
      }
    },
    {
      "type": "Feature",
      "properties": {
        "norad_id": 66399,
        "name": "STARLINK-35657",
        "group": "last-30-days",
        "lat": -40.63563707964868,
        "lon": 137.85612864456584,
        "alt_km": 452.2827434091687,
        "timestamp": "2025-12-09T20:37:08.054379+00:00",
        "meta_object_name": "STARLINK-35657",
        "meta_object_id": "2025-257V",
        "meta_epoch": "2025-12-09T16:00:01.999584",
        "meta_mean_motion": 15.39521878,
        "meta_eccentricity": 0.00011374,
        "meta_inclination": 53.1598,
        "meta_ra_of_asc_node": 278.7173,
        "meta_arg_of_pericenter": 107.1564,
        "meta_mean_anomaly": 140.1326,
        "meta_ephemeris_type": 0,
        "meta_classification_type": "U",
        "meta_norad_cat_id": 66399,
        "meta_element_set_no": 999,
        "meta_rev_at_epoch": 600,
        "meta_bstar": 0.0024019936,
        "meta_mean_motion_dot": 0.00096591,
        "meta_mean_motion_ddot": 0,
        "tle_line1": "1 66399U 25257V   25343.66668981  .00096591  00000+0  24020-2 0  9990",
        "tle_line2": "2 66399  53.1598 278.7173 0001137 107.1564 140.1326 15.39521878  6009"
      },
      "geometry": {
        "type": "Point",
        "coordinates": [
          137.85612864456584,
          -40.63563707964868
        ]
      }
    },
    {
      "type": "Feature",
      "properties": {
        "norad_id": 66400,
        "name": "STARLINK-35667",
        "group": "last-30-days",
        "lat": -50.910701733361776,
        "lon": -149.64378730225897,
        "alt_km": 452.9659077497354,
        "timestamp": "2025-12-09T20:37:08.054390+00:00",
        "meta_object_name": "STARLINK-35667",
        "meta_object_id": "2025-257W",
        "meta_epoch": "2025-12-09T16:00:01.999584",
        "meta_mean_motion": 15.39527187,
        "meta_eccentricity": 0.00012486,
        "meta_inclination": 53.1591,
        "meta_ra_of_asc_node": 278.6181,
        "meta_arg_of_pericenter": 86.3513,
        "meta_mean_anomaly": 210.6025,
        "meta_ephemeris_type": 0,
        "meta_classification_type": "U",
        "meta_norad_cat_id": 66400,
        "meta_element_set_no": 999,
        "meta_rev_at_epoch": 600,
        "meta_bstar": 0.002670549,
        "meta_mean_motion_dot": 0.0010761,
        "meta_mean_motion_ddot": 0,
        "tle_line1": "1 66400U 25257W   25343.66668981  .00107610  00000+0  26705-2 0  9990",
        "tle_line2": "2 66400  53.1591 278.6181 0001248  86.3513 210.6025 15.39527187  6006"
      },
      "geometry": {
        "type": "Point",
        "coordinates": [
          -149.64378730225897,
          -50.910701733361776
        ]
      }
    }
  ]
}